{"type":"FeatureCollection","features":[{"type":"Feature","geometry":{"type":"Polygon","coordinates":[[[139.56197064,35.63259069],[139.56247148,35.63239903],[139.56251064,35.63238403],[139.5625873,35.63231264],[139.5626573,35.63226375],[139.56266425,35.63224544],[139.56271397,35.63211489],[139.56267341,35.63203044],[139.56263953,35.63193767],[139.56261842,35.63182767],[139.56260759,35.63166822],[139.56259008,35.6315535],[139.56260759,35.63145433],[139.5626573,35.63139044],[139.56286008,35.63131295],[139.56402815,35.63075322],[139.56469092,35.63042933],[139.56512925,35.63021489],[139.56540842,35.63007656],[139.56571036,35.62992711],[139.5659209,35.62975489],[139.56597672,35.62971767],[139.56607672,35.62965072],[139.56616034,35.62954433],[139.56617616,35.62945156],[139.56614339,35.62933211],[139.5660909,35.62913961],[139.5659245,35.62878711],[139.565902,35.62871711],[139.56580756,35.62842128],[139.56576144,35.62796323],[139.56563034,35.62753684],[139.56559506,35.62741961],[139.56558255,35.62737877],[139.56557283,35.6272785],[139.56563034,35.62720184],[139.56585061,35.62716377],[139.56610645,35.62713544],[139.56625394,35.62711892],[139.56636756,35.62710628],[139.56666667,35.6270882],[139.56666949,35.62708803],[139.56677228,35.62708184],[139.56692283,35.62707267],[139.56722672,35.62701878],[139.56730117,35.62700572],[139.56770756,35.6269385],[139.56792811,35.62683851],[139.56845034,35.62651684],[139.56883562,35.62627961],[139.56931922,35.62594489],[139.56953477,35.62577267],[139.56962338,35.6256585],[139.56971339,35.62554267],[139.57002309,35.62527989],[139.57034988,35.62500017],[139.57035012,35.625],[139.57041642,35.62494323],[139.5705592,35.624821],[139.57111752,35.62441075],[139.57119891,35.62436769],[139.57142365,35.62424825],[139.57194058,35.62398047],[139.57245891,35.62368187],[139.5728528,35.62349353],[139.57364503,35.62312936],[139.57395752,35.62299603],[139.57432947,35.62283741],[139.575,35.62256175],[139.5750028,35.62256061],[139.57552613,35.62234547],[139.57576503,35.6222602],[139.57654558,35.62198214],[139.57734558,35.62182131],[139.57812669,35.62178213],[139.57819336,35.6217788],[139.57843141,35.62178103],[139.57850392,35.62181075],[139.57862419,35.6218602],[139.57891086,35.6219538],[139.57898253,35.62197714],[139.57924503,35.62204436],[139.57945531,35.62204853],[139.5797317,35.62206269],[139.58004392,35.6220202],[139.58046975,35.62188547],[139.58083253,35.6217538],[139.58102419,35.62168992],[139.58118336,35.62165631],[139.58158558,35.62162269],[139.58238781,35.62159769],[139.58278503,35.62159769],[139.58310725,35.62150769],[139.58333333,35.62145075],[139.58333613,35.62145003],[139.58375336,35.62134492],[139.5842228,35.62121825],[139.5849928,35.62101964],[139.58539031,35.62087964],[139.58556309,35.6208188],[139.58638639,35.62045523],[139.58699722,35.62010633],[139.58707917,35.62005356],[139.58787778,35.61954023],[139.58822834,35.61931467],[139.58835139,35.61925161],[139.58837888,35.61923744],[139.58882667,35.619008],[139.58917111,35.61886328],[139.58919445,35.61885356],[139.58953861,35.61877939],[139.58988584,35.61865995],[139.59023555,35.61843078],[139.59015944,35.61884939],[139.59015667,35.61886467],[139.59010694,35.61901828],[139.59003722,35.61923384],[139.58998,35.61941023],[139.58993361,35.61955384],[139.58988917,35.61969105],[139.58982834,35.61996828],[139.58980805,35.62006105],[139.5896053,35.62057939],[139.58949837,35.62076244],[139.58943475,35.62087078],[139.5894117,35.62100411],[139.58939503,35.62105133],[139.58934781,35.62116633],[139.58933253,35.62122467],[139.58934086,35.62126605],[139.58936447,35.62130772],[139.5893992,35.62135911],[139.58942698,35.62138967],[139.58954837,35.62148661],[139.58960947,35.62164744],[139.58972141,35.62194161],[139.58973669,35.62218161],[139.58972808,35.62221439],[139.58971031,35.62228133],[139.58967752,35.62240551],[139.58965475,35.62249161],[139.58961613,35.62269856],[139.58959642,35.62280467],[139.58957669,35.62290995],[139.58956752,35.62296022],[139.58955114,35.62304744],[139.58950613,35.62328939],[139.58949503,35.62336439],[139.58950197,35.62345967],[139.58953364,35.62357911],[139.58957503,35.62381356],[139.58967669,35.62398995],[139.58977114,35.62417995],[139.58993975,35.62446161],[139.58995586,35.62447023],[139.59003613,35.62451244],[139.59007752,35.62453439],[139.5902153,35.62453439],[139.59024058,35.62451244],[139.59030253,35.62445911],[139.59038947,35.62438384],[139.59046864,35.62430772],[139.59070503,35.62414772],[139.59087309,35.62404495],[139.59099364,35.62399189],[139.59128642,35.62379856],[139.59139586,35.62372633],[139.59166667,35.62368367],[139.59166947,35.62368323],[139.59202336,35.62362744],[139.59206392,35.62368411],[139.59209392,35.62374578],[139.59215392,35.62386689],[139.59223364,35.62384605],[139.59232086,35.62383105],[139.59236114,35.62382272],[139.5924028,35.62381577],[139.5924417,35.62380744],[139.59248752,35.62380189],[139.59249725,35.62381995],[139.59249725,35.623838],[139.59247086,35.62387244],[139.59243475,35.6239155],[139.59239586,35.62395577],[139.59236392,35.62399744],[139.59232058,35.62413605],[139.59229197,35.62422661],[139.59229058,35.62423133],[139.59230114,35.62426939],[139.59232364,35.62434995],[139.59236086,35.62441328],[139.59244781,35.62456189],[139.59256808,35.62484633],[139.5926875,35.625],[139.59268766,35.62500023],[139.59280336,35.62514911],[139.59302447,35.62555717],[139.59314336,35.62577744],[139.59321114,35.62591244],[139.59334808,35.62611939],[139.59336224,35.62623911],[139.59348725,35.62645078],[139.59354864,35.62655495],[139.59363197,35.6266205],[139.59379224,35.62661023],[139.59382558,35.62660828],[139.59393781,35.62660105],[139.59410808,35.62673884],[139.59411642,35.62682772],[139.59406669,35.62693467],[139.59401089,35.62705439],[139.59391339,35.62716661],[139.59369589,35.62732272],[139.59365339,35.62734244],[139.59356228,35.62738467],[139.59335616,35.62740384],[139.59323839,35.62741495],[139.593022,35.62743495],[139.5929245,35.62736217],[139.59282978,35.62735051],[139.59274728,35.62733439],[139.59268645,35.62733856],[139.59263283,35.62736217],[139.59243005,35.62745939],[139.59239949,35.62748661],[139.59238256,35.62752078],[139.59239756,35.62762133],[139.5924209,35.62770967],[139.59244672,35.62780828],[139.59245367,35.62783411],[139.59247922,35.62793105],[139.59251394,35.62806244],[139.59251922,35.628083],[139.59252228,35.62809217],[139.59255589,35.62818828],[139.59257423,35.62824133],[139.59255394,35.62843356],[139.59247866,35.62853633],[139.59234895,35.62869825],[139.59238144,35.62881159],[139.59240394,35.62885659],[139.59248645,35.62895741],[139.59265672,35.62910325],[139.59276173,35.62922659],[139.5927945,35.6292652],[139.59293144,35.62939825],[139.59294756,35.62942714],[139.59285866,35.62948797],[139.59278423,35.6295388],[139.59264645,35.62963603],[139.59258978,35.6297738],[139.59249969,35.63012013],[139.5924845,35.63017853],[139.59241562,35.63030436],[139.59233839,35.63044575],[139.59222506,35.63051047],[139.59196562,35.6306402],[139.59166949,35.63080661],[139.59166667,35.63080823],[139.59146645,35.63092075],[139.5912709,35.63105464],[139.59126034,35.6312638],[139.59138172,35.63154713],[139.59144949,35.63170297],[139.59151144,35.63180631],[139.59154394,35.63196825],[139.59155756,35.63201547],[139.59145061,35.6320852],[139.59140672,35.6320938],[139.5913845,35.63211853],[139.59137477,35.63219631],[139.59139866,35.63263659],[139.59130311,35.63278797],[139.59140645,35.63306269],[139.59126533,35.63306547],[139.59120283,35.63304853],[139.59110616,35.63302187],[139.59100506,35.63299436],[139.59092852,35.63333333],[139.5909285,35.63333353],[139.5909273,35.6333388],[139.59092591,35.63334464],[139.5907973,35.63347159],[139.59061591,35.6336502],[139.59051869,35.63374741],[139.59043674,35.6338552],[139.59036453,35.63394992],[139.5902673,35.63403103],[139.59014481,35.63412464],[139.58999175,35.63424159],[139.58975674,35.63441964],[139.58963314,35.63446075],[139.58953092,35.63449492],[139.58947953,35.63451187],[139.58934314,35.63455714],[139.58930481,35.63456269],[139.58896981,35.63461047],[139.58883481,35.63462992],[139.58877564,35.63463825],[139.58869869,35.63467408],[139.58858202,35.63472853],[139.58828925,35.63486492],[139.58825314,35.6348702],[139.58809842,35.63489214],[139.58800564,35.63490547],[139.58798981,35.63490992],[139.58784119,35.63495269],[139.58779092,35.63497186],[139.58775119,35.63499825],[139.58771508,35.63502213],[139.58766786,35.63506713],[139.58764397,35.63518159],[139.58764064,35.63519713],[139.58762453,35.63529408],[139.58759092,35.63537603],[139.58733869,35.63568075],[139.58720231,35.63581464],[139.58688397,35.63620408],[139.58685341,35.63624159],[139.58667564,35.63646631],[139.58640647,35.63680631],[139.58623258,35.63702964],[139.58617953,35.63709797],[139.58608759,35.63725464],[139.5859037,35.63756741],[139.58570925,35.6379238],[139.58563202,35.6380838],[139.58561591,35.63811741],[139.5855973,35.63815603],[139.58547538,35.63855269],[139.58547261,35.63863408],[139.58536261,35.63887603],[139.58531066,35.63899047],[139.585149,35.63959408],[139.58503428,35.63995072],[139.584889,35.64026989],[139.58450538,35.640936],[139.58446567,35.641016],[139.58444511,35.64107739],[139.58443594,35.64114378],[139.58444761,35.6411735],[139.58447039,35.64120072],[139.58452983,35.64123961],[139.58459511,35.64128044],[139.5846465,35.64131989],[139.58471066,35.64133878],[139.58474316,35.64136322],[139.58470261,35.64146044],[139.58466345,35.64166667],[139.58466341,35.64166684],[139.58464956,35.64173989],[139.58515706,35.64189989],[139.58517678,35.641906],[139.5852915,35.64195156],[139.5855265,35.64204433],[139.58557538,35.64206377],[139.58563733,35.64208823],[139.58584012,35.64216128],[139.58589678,35.642226],[139.58589678,35.64226656],[139.58587345,35.64261684],[139.58586927,35.64264628],[139.58600927,35.64264961],[139.58637289,35.64264795],[139.58658594,35.64264711],[139.58664261,35.64267961],[139.58677122,35.64308433],[139.58677872,35.64311044],[139.58679178,35.64315628],[139.58688567,35.64314128],[139.58689066,35.64314128],[139.58704372,35.6431435],[139.58706567,35.64318517],[139.58710178,35.64333072],[139.5871215,35.64342044],[139.58707205,35.64361905],[139.58704039,35.64390323],[139.58706455,35.64416656],[139.58707872,35.64421572],[139.58716789,35.64434517],[139.587184,35.64436239],[139.58734484,35.64453544],[139.58734706,35.64453795],[139.58737872,35.64457211],[139.58738681,35.64462878],[139.58721903,35.64487878],[139.5870382,35.6451635],[139.58709514,35.64537405],[139.58718597,35.64539517],[139.58729986,35.64541378],[139.58742737,35.64547128],[139.58765458,35.6455685],[139.58787348,35.64569795],[139.58787458,35.64572267],[139.5878593,35.64574239],[139.58772903,35.64584933],[139.58766209,35.645961],[139.58763263,35.64605544],[139.5876382,35.64616739],[139.58764263,35.64620656],[139.58764959,35.64626684],[139.58766319,35.6463885],[139.58762986,35.64642684],[139.5875793,35.64646184],[139.58751652,35.6464835],[139.58744292,35.64649656],[139.58729764,35.64649156],[139.58717292,35.64646044],[139.58706903,35.64643433],[139.58681125,35.64636989],[139.58667348,35.64630517],[139.58651958,35.64622405],[139.58625875,35.64605489],[139.58619514,35.6460135],[139.5861682,35.64599044],[139.58616542,35.64598823],[139.58607903,35.64591489],[139.58596319,35.64581628],[139.58596041,35.64581405],[139.58589319,35.64575684],[139.58565209,35.64555184],[139.58557903,35.64551128],[139.58543319,35.64571377],[139.58493514,35.64632628],[139.58466708,35.64654905],[139.58434458,35.64681684],[139.5843307,35.64682851],[139.58431125,35.64684461],[139.58428263,35.64698461],[139.58426014,35.647096],[139.58423791,35.64720433],[139.58422209,35.64728184],[139.58417876,35.64738128],[139.58414097,35.64746822],[139.58413292,35.64764628],[139.58410875,35.64771933],[139.58400319,35.64788933],[139.58400153,35.647911],[139.58399514,35.64800267],[139.58401903,35.64815544],[139.5840193,35.64815656],[139.58405959,35.64821322],[139.58410292,35.64823878],[139.58414348,35.64826239],[139.58429486,35.648351],[139.58432737,35.64839156],[139.5841893,35.64869933],[139.58408403,35.64874795],[139.58394764,35.64860711],[139.58384097,35.64849684],[139.58362959,35.64849044],[139.58352986,35.64848767],[139.58347236,35.648486],[139.58333625,35.64848189],[139.58333333,35.6484818],[139.58328791,35.64848044],[139.58310153,35.64844823],[139.58294847,35.648446],[139.5827393,35.64844323],[139.58265124,35.64844184],[139.58252597,35.64844017],[139.58229903,35.64846433],[139.58222597,35.64831044],[139.58225708,35.64817184],[139.58228375,35.64805405],[139.58230569,35.647956],[139.58233292,35.64783517],[139.58233458,35.64782739],[139.58237153,35.64766405],[139.5823882,35.64758961],[139.58235569,35.64753295],[139.58242319,35.64750211],[139.58253125,35.64746517],[139.58273681,35.64739517],[139.58279348,35.64729795],[139.58278542,35.64725739],[139.5826718,35.64728989],[139.58245348,35.64734128],[139.58240041,35.64735405],[139.58222597,35.64739517],[139.58222514,35.64739517],[139.58200569,35.64741156],[139.58182458,35.6473135],[139.5816018,35.64719267],[139.5811318,35.64721684],[139.58077514,35.64727378],[139.5806293,35.647306],[139.58033458,35.64742739],[139.58021569,35.64747628],[139.58017514,35.6475085],[139.58018375,35.64775264],[139.57995278,35.64783056],[139.57946287,35.64788472],[139.57927575,35.64799169],[139.579101,35.64818236],[139.5793409,35.64863169],[139.57938438,35.64866217],[139.57987949,35.64877228],[139.57996852,35.64876389],[139.58029781,35.648866],[139.58034419,35.64890013],[139.58045783,35.64898359],[139.58058078,35.64908597],[139.58069442,35.64902339],[139.58085678,35.64915995],[139.58061494,35.64954628],[139.58029384,35.64923975],[139.58022134,35.649277],[139.57958328,35.64888577],[139.57930156,35.64901789],[139.57924759,35.64891289],[139.57921859,35.64869272],[139.57892031,35.64869951],[139.57855986,35.64884517],[139.57855795,35.64899431],[139.57846878,35.64903459],[139.57816878,35.64901847],[139.57816628,35.64901847],[139.57795655,35.64902264],[139.57794211,35.6490232],[139.57779934,35.64902792],[139.57750377,35.64911931],[139.57733433,35.64923486],[139.57719961,35.64932708],[139.57704489,35.64949014],[139.57688822,35.6497232],[139.57673523,35.65],[139.57673514,35.65000013],[139.57658822,35.65026597],[139.57652322,35.65033847],[139.57641795,35.65033041],[139.57624767,35.65034653],[139.57606128,35.65043569],[139.57582628,35.65047625],[139.575481,35.6505018],[139.57541739,35.65051013],[139.57510795,35.65055041],[139.57500294,35.650584],[139.575,35.65058495],[139.57478489,35.65065375],[139.57452211,35.65073736],[139.57449988,35.65074459],[139.57432655,35.65074459],[139.57432156,35.65074459],[139.57424795,35.65069959],[139.57421128,35.65068931],[139.57416156,35.6506632],[139.57413267,35.65064736],[139.57406988,35.65063959],[139.57393628,35.65061069],[139.57387655,35.65058208],[139.57380572,35.65054013],[139.57370377,35.65049569],[139.57357267,35.65045125],[139.57349156,35.65043541],[139.57342628,35.65041959],[139.57339766,35.65041264],[139.57326767,35.65040153],[139.57321128,35.65039653],[139.57309961,35.65038847],[139.57298433,35.65038013],[139.57291128,35.65033959],[139.57289322,35.65029459],[139.57287878,35.65025875],[139.57282767,35.65020125],[139.57281406,35.65018569],[139.57270044,35.65012903],[139.57265628,35.65012069],[139.57248961,35.65008847],[139.57233572,35.65000764],[139.57232737,35.65000013],[139.57232722,35.65],[139.57224377,35.64992569],[139.57218988,35.64987792],[139.57216849,35.64984903],[139.57214294,35.64981431],[139.57210044,35.64975653],[139.57207156,35.64960514],[139.57206017,35.64954625],[139.57193044,35.64944097],[139.57156156,35.64931487],[139.57126988,35.64930653],[139.5710635,35.64932153],[139.57097655,35.64932792],[139.5708685,35.64933569],[139.57071044,35.64934708],[139.57054822,35.6493532],[139.57049961,35.64935514],[139.57025849,35.64928459],[139.57003767,35.64929041],[139.56992406,35.64925792],[139.56985934,35.64917708],[139.56981044,35.64911236],[139.56965655,35.64908792],[139.56947017,35.64903125],[139.56945377,35.64899069],[139.56943961,35.64890097],[139.56942156,35.6487882],[139.56944628,35.6487432],[139.56949683,35.64865069],[139.56949961,35.64864569],[139.56965628,35.64835987],[139.56968628,35.64830487],[139.56969516,35.64806153],[139.5696685,35.64792875],[139.56961988,35.64788014],[139.56960322,35.64787013],[139.56957766,35.64785514],[139.56947822,35.64779597],[139.56926572,35.6477118],[139.56905044,35.6476418],[139.56889795,35.64759236],[139.56888878,35.64758375],[139.56877822,35.64747736],[139.56844294,35.64747764],[139.56818433,35.64749597],[139.56782294,35.6475218],[139.56764572,35.64749513],[139.56752211,35.64751041],[139.56721183,35.64754847],[139.56710628,35.64756208],[139.56686961,35.64759205],[139.56686628,35.64759261],[139.56673767,35.64759261],[139.56666961,35.64755547],[139.56666667,35.64755389],[139.56659156,35.64751289],[139.56641684,35.64743344],[139.56628822,35.64737484],[139.56618739,35.64732872],[139.56589934,35.64722705],[139.56575322,35.64716956],[139.56578406,35.64702344],[139.5658285,35.64671789],[139.56589044,35.64636403],[139.56588516,35.64633625],[139.56586822,35.64624875],[139.56581073,35.64613375],[139.56569156,35.64594903],[139.5656735,35.64592125],[139.56550239,35.64561959],[139.56541849,35.64551513],[139.56515572,35.64518708],[139.56515128,35.64518097],[139.56503655,35.64502459],[139.56499433,35.64489403],[139.56495878,35.64478486],[139.56490655,35.64462403],[139.56464655,35.64411541],[139.56450542,35.64379486],[139.56412348,35.64311431],[139.56410458,35.64308041],[139.56394652,35.64277208],[139.5639193,35.64271875],[139.56386597,35.64261513],[139.56374681,35.64217153],[139.56360625,35.64192264],[139.56349597,35.64171153],[139.56347625,35.64167375],[139.56347377,35.6416668],[139.56347372,35.64166667],[139.56336791,35.64137069],[139.56332514,35.64089653],[139.56315681,35.63988736],[139.5631518,35.63985764],[139.56306538,35.63887292],[139.56309789,35.63856987],[139.56317372,35.6384182],[139.56322789,35.63818013],[139.56323872,35.63793125],[139.56320623,35.63739041],[139.56312066,35.63701264],[139.56309428,35.6368968],[139.56306399,35.63639569],[139.56301455,35.63630764],[139.56296234,35.63595764],[139.5629265,35.63585931],[139.56275594,35.63579236],[139.56275122,35.63579069],[139.56270761,35.63577347],[139.56257233,35.63568153],[139.56254261,35.63554459],[139.56249484,35.6353232],[139.56247511,35.63523236],[139.56246012,35.63515236],[139.56233039,35.63445569],[139.56212064,35.63345653],[139.56209927,35.63333347],[139.56209925,35.63333333],[139.56208786,35.63326764],[139.56203591,35.6329682],[139.56198703,35.63268514],[139.56197064,35.63259069]]]},"properties":{"N03_001":"東京都","N03_002":null,"N03_003":null,"N03_004":"狛江市","N03_005":null,"N03_007":"13219"}}]}