{
  "type": "FeatureCollection",
  "features": [
    {
      "type": "Feature",
      "properties": {
        "N02_001": "12",
        "N02_002": "5",
        "N02_003": "みなとみらい21線",
        "N02_004": "横浜高速鉄道",
        "N02_005": "みなとみらい",
        "N02_005c": "004656",
        "N02_005g": "004656",
        "ward_code": "14103",
        "ward_name": "横浜市"
      },
      "geometry": {
        "type": "LineString",
        "coordinates": [
          [
            139.63183,
            35.45847
          ],
          [
            139.63309,
            35.45688
          ]
        ]
      }
    },
    {
      "type": "Feature",
      "properties": {
        "N02_001": "12",
        "N02_002": "5",
        "N02_003": "みなとみらい21線",
        "N02_004": "横浜高速鉄道",
        "N02_005": "新高島",
        "N02_005c": "004647",
        "N02_005g": "004647",
        "ward_code": "14103",
        "ward_name": "横浜市"
      },
      "geometry": {
        "type": "LineString",
        "coordinates": [
          [
            139.62567,
            35.46196
          ],
          [
            139.6273,
            35.46195
          ]
        ]
      }
    },
    {
      "type": "Feature",
      "properties": {
        "N02_001": "12",
        "N02_002": "5",
        "N02_003": "みなとみらい21線",
        "N02_004": "横浜高速鉄道",
        "N02_005": "横浜",
        "N02_005c": "004629",
        "N02_005g": "004633",
        "ward_code": "14103",
        "ward_name": "横浜市"
      },
      "geometry": {
        "type": "LineString",
        "coordinates": [
          [
            139.62275,
            35.46687
          ],
          [
            139.62195,
            35.466
          ]
        ]
      }
    },
    {
      "type": "Feature",
      "properties": {
        "N02_001": "12",
        "N02_002": "3",
        "N02_003": "3号線",
        "N02_004": "横浜市",
        "N02_005": "高島町",
        "N02_005c": "004654",
        "N02_005g": "004654",
        "ward_code": "14103",
        "ward_name": "横浜市"
      },
      "geometry": {
        "type": "LineString",
        "coordinates": [
          [
            139.62414,
            35.4581
          ],
          [
            139.62316,
            35.45929
          ]
        ]
      }
    },
    {
      "type": "Feature",
      "properties": {
        "N02_001": "12",
        "N02_002": "3",
        "N02_003": "3号線",
        "N02_004": "横浜市",
        "N02_005": "横浜",
        "N02_005c": "004636",
        "N02_005g": "004633",
        "ward_code": "14103",
        "ward_name": "横浜市"
      },
      "geometry": {
        "type": "LineString",
        "coordinates": [
          [
            139.6205,
            35.46462
          ],
          [
            139.62031,
            35.46502
          ],
          [
            139.62015,
            35.46542
          ],
          [
            139.61998,
            35.4658
          ],
          [
            139.61978,
            35.46617
          ]
        ]
      }
    },
    {
      "type": "Feature",
      "properties": {
        "N02_001": "12",
        "N02_002": "4",
        "N02_003": "本線",
        "N02_004": "京浜急行電鉄",
        "N02_005": "戸部",
        "N02_005c": "004660",
        "N02_005g": "004660",
        "ward_code": "14103",
        "ward_name": "横浜市"
      },
      "geometry": {
        "type": "LineString",
        "coordinates": [
          [
            139.61976,
            35.45619
          ],
          [
            139.61936,
            35.45713
          ]
        ]
      }
    },
    {
      "type": "Feature",
      "properties": {
        "N02_001": "12",
        "N02_002": "4",
        "N02_003": "本線",
        "N02_004": "京浜急行電鉄",
        "N02_005": "横浜",
        "N02_005c": "004631",
        "N02_005g": "004633",
        "ward_code": "14103",
        "ward_name": "横浜市"
      },
      "geometry": {
        "type": "LineString",
        "coordinates": [
          [
            139.62237,
            35.46528
          ],
          [
            139.62388,
            35.46722
          ]
        ]
      }
    },
    {
      "type": "Feature",
      "properties": {
        "N02_001": "12",
        "N02_002": "4",
        "N02_003": "江ノ島電鉄線",
        "N02_004": "江ノ島電鉄",
        "N02_005": "七里ヶ浜",
        "N02_005c": "005099",
        "N02_005g": "005099",
        "ward_code": "14204",
        "ward_name": "鎌倉市"
      },
      "geometry": {
        "type": "LineString",
        "coordinates": [
          [
            139.51024,
            35.30637
          ],
          [
            139.51017,
            35.30634
          ],
          [
            139.5101,
            35.30631
          ],
          [
            139.50996,
            35.30626
          ],
          [
            139.50975,
            35.30618
          ]
        ]
      }
    },
    {
      "type": "Feature",
      "properties": {
        "N02_001": "12",
        "N02_002": "4",
        "N02_003": "江ノ島電鉄線",
        "N02_004": "江ノ島電鉄",
        "N02_005": "鎌倉",
        "N02_005c": "005059",
        "N02_005g": "005055",
        "ward_code": "14204",
        "ward_name": "鎌倉市"
      },
      "geometry": {
        "type": "LineString",
        "coordinates": [
          [
            139.55009,
            35.31849
          ],
          [
            139.55009,
            35.3181
          ]
        ]
      }
    },
    {
      "type": "Feature",
      "properties": {
        "N02_001": "12",
        "N02_002": "4",
        "N02_003": "江ノ島電鉄線",
        "N02_004": "江ノ島電鉄",
        "N02_005": "由比ヶ浜",
        "N02_005c": "005081",
        "N02_005g": "005081",
        "ward_code": "14204",
        "ward_name": "鎌倉市"
      },
      "geometry": {
        "type": "LineString",
        "coordinates": [
          [
            139.54184,
            35.31295
          ],
          [
            139.54131,
            35.31281
          ]
        ]
      }
    },
    {
      "type": "Feature",
      "properties": {
        "N02_001": "12",
        "N02_002": "4",
        "N02_003": "江ノ島電鉄線",
        "N02_004": "江ノ島電鉄",
        "N02_005": "鎌倉高校前",
        "N02_005c": "005096",
        "N02_005g": "005096",
        "ward_code": "14204",
        "ward_name": "鎌倉市"
      },
      "geometry": {
        "type": "LineString",
        "coordinates": [
          [
            139.50076,
            35.30675
          ],
          [
            139.50023,
            35.30677
          ]
        ]
      }
    },
    {
      "type": "Feature",
      "properties": {
        "N02_001": "12",
        "N02_002": "4",
        "N02_003": "江ノ島電鉄線",
        "N02_004": "江ノ島電鉄",
        "N02_005": "和田塚",
        "N02_005c": "005080",
        "N02_005g": "005080",
        "ward_code": "14204",
        "ward_name": "鎌倉市"
      },
      "geometry": {
        "type": "LineString",
        "coordinates": [
          [
            139.54566,
            35.31381
          ],
          [
            139.54548,
            35.31377
          ],
          [
            139.54524,
            35.31371
          ],
          [
            139.5451,
            35.31368
          ]
        ]
      }
    },
    {
      "type": "Feature",
      "properties": {
        "N02_001": "12",
        "N02_002": "4",
        "N02_003": "江ノ島電鉄線",
        "N02_004": "江ノ島電鉄",
        "N02_005": "極楽寺",
        "N02_005c": "005091",
        "N02_005g": "005091",
        "ward_code": "14204",
        "ward_name": "鎌倉市"
      },
      "geometry": {
        "type": "LineString",
        "coordinates": [
          [
            139.52874,
            35.30937
          ],
          [
            139.52832,
            35.30904
          ]
        ]
      }
    },
    {
      "type": "Feature",
      "properties": {
        "N02_001": "12",
        "N02_002": "4",
        "N02_003": "江ノ島電鉄線",
        "N02_004": "江ノ島電鉄",
        "N02_005": "稲村ヶ崎",
        "N02_005c": "005103",
        "N02_005g": "005103",
        "ward_code": "14204",
        "ward_name": "鎌倉市"
      },
      "geometry": {
        "type": "LineString",
        "coordinates": [
          [
            139.52254,
            35.30434
          ],
          [
            139.52199,
            35.30432
          ]
        ]
      }
    },
    {
      "type": "Feature",
      "properties": {
        "N02_001": "12",
        "N02_002": "4",
        "N02_003": "江ノ島電鉄線",
        "N02_004": "江ノ島電鉄",
        "N02_005": "長谷",
        "N02_005c": "005086",
        "N02_005g": "005086",
        "ward_code": "14204",
        "ward_name": "鎌倉市"
      },
      "geometry": {
        "type": "LineString",
        "coordinates": [
          [
            139.53654,
            35.3114
          ],
          [
            139.53598,
            35.31125
          ]
        ]
      }
    },
    {
      "type": "Feature",
      "properties": {
        "N02_001": "12",
        "N02_002": "4",
        "N02_003": "江ノ島電鉄線",
        "N02_004": "江ノ島電鉄",
        "N02_005": "腰越",
        "N02_005c": "005093",
        "N02_005g": "005093",
        "ward_code": "14204",
        "ward_name": "鎌倉市"
      },
      "geometry": {
        "type": "LineString",
        "coordinates": [
          [
            139.49359,
            35.30823
          ],
          [
            139.49312,
            35.30845
          ]
        ]
      }
    },
    {
      "type": "Feature",
      "properties": {
        "N02_001": "12",
        "N02_002": "4",
        "N02_003": "小田原線",
        "N02_004": "小田急電鉄",
        "N02_005": "喜多見",
        "N02_005c": "004053",
        "N02_005g": "004053",
        "ward_code": "13219",
        "ward_name": "狛江市"
      },
      "geometry": {
        "type": "LineString",
        "coordinates": [
          [
            139.58554,
            35.63613
          ],
          [
            139.58667,
            35.63647
          ],
          [
            139.58802,
            35.63686
          ]
        ]
      }
    },
    {
      "type": "Feature",
      "properties": {
        "N02_001": "12",
        "N02_002": "4",
        "N02_003": "小田原線",
        "N02_004": "小田急電鉄",
        "N02_005": "狛江",
        "N02_005c": "004076",
        "N02_005g": "004076",
        "ward_code": "13219",
        "ward_name": "狛江市"
      },
      "geometry": {
        "type": "LineString",
        "coordinates": [
          [
            139.57669,
            35.63162
          ],
          [
            139.57692,
            35.63185
          ],
          [
            139.57744,
            35.63232
          ],
          [
            139.5778,
            35.63263
          ],
          [
            139.57807,
            35.63283
          ]
        ]
      }
    },
    {
      "type": "Feature",
      "properties": {
        "N02_001": "12",
        "N02_002": "4",
        "N02_003": "小田原線",
        "N02_004": "小田急電鉄",
        "N02_005": "和泉多摩川",
        "N02_005c": "004105",
        "N02_005g": "004105",
        "ward_code": "13219",
        "ward_name": "狛江市"
      },
      "geometry": {
        "type": "LineString",
        "coordinates": [
          [
            139.57331,
            35.6268
          ],
          [
            139.57413,
            35.62803
          ]
        ]
      }
    },
    {
      "type": "Feature",
      "properties": {
        "N02_001": "14",
        "N02_002": "4",
        "N02_003": "江の島線",
        "N02_004": "湘南モノレール",
        "N02_005": "西鎌倉",
        "N02_005c": "005053",
        "N02_005g": "005053",
        "ward_code": "14204",
        "ward_name": "鎌倉市"
      },
      "geometry": {
        "type": "LineString",
        "coordinates": [
          [
            139.50405,
            35.31926
          ],
          [
            139.50425,
            35.31937
          ],
          [
            139.50462,
            35.31956
          ]
        ]
      }
    },
    {
      "type": "Feature",
      "properties": {
        "N02_001": "14",
        "N02_002": "4",
        "N02_003": "江の島線",
        "N02_004": "湘南モノレール",
        "N02_005": "大船",
        "N02_005c": "004964",
        "N02_005g": "004961",
        "ward_code": "14204",
        "ward_name": "鎌倉市"
      },
      "geometry": {
        "type": "LineString",
        "coordinates": [
          [
            139.53155,
            35.3531
          ],
          [
            139.53143,
            35.35264
          ],
          [
            139.5312,
            35.35182
          ]
        ]
      }
    },
    {
      "type": "Feature",
      "properties": {
        "N02_001": "14",
        "N02_002": "4",
        "N02_003": "江の島線",
        "N02_004": "湘南モノレール",
        "N02_005": "湘南深沢",
        "N02_005c": "005015",
        "N02_005g": "005015",
        "ward_code": "14204",
        "ward_name": "鎌倉市"
      },
      "geometry": {
        "type": "LineString",
        "coordinates": [
          [
            139.51871,
            35.33279
          ],
          [
            139.51911,
            35.33316
          ]
        ]
      }
    },
    {
      "type": "Feature",
      "properties": {
        "N02_001": "14",
        "N02_002": "4",
        "N02_003": "江の島線",
        "N02_004": "湘南モノレール",
        "N02_005": "富士見町",
        "N02_005c": "004978",
        "N02_005g": "004978",
        "ward_code": "14204",
        "ward_name": "鎌倉市"
      },
      "geometry": {
        "type": "LineString",
        "coordinates": [
          [
            139.52957,
            35.34562
          ],
          [
            139.52907,
            35.34508
          ]
        ]
      }
    },
    {
      "type": "Feature",
      "properties": {
        "N02_001": "14",
        "N02_002": "4",
        "N02_003": "江の島線",
        "N02_004": "湘南モノレール",
        "N02_005": "湘南町屋",
        "N02_005c": "004999",
        "N02_005g": "004999",
        "ward_code": "14204",
        "ward_name": "鎌倉市"
      },
      "geometry": {
        "type": "LineString",
        "coordinates": [
          [
            139.52275,
            35.33816
          ],
          [
            139.52269,
            35.33755
          ]
        ]
      }
    },
    {
      "type": "Feature",
      "properties": {
        "N02_001": "14",
        "N02_002": "4",
        "N02_003": "江の島線",
        "N02_004": "湘南モノレール",
        "N02_005": "片瀬山",
        "N02_005c": "005062",
        "N02_005g": "005062",
        "ward_code": "14204",
        "ward_name": "鎌倉市"
      },
      "geometry": {
        "type": "LineString",
        "coordinates": [
          [
            139.49654,
            35.31729
          ],
          [
            139.496,
            35.31734
          ]
        ]
      }
    },
    {
      "type": "Feature",
      "properties": {
        "N02_001": "12",
        "N02_002": "4",
        "N02_003": "本線",
        "N02_004": "相模鉄道",
        "N02_005": "西横浜",
        "N02_005c": "004669",
        "N02_005g": "004669",
        "ward_code": "14103",
        "ward_name": "横浜市"
      },
      "geometry": {
        "type": "LineString",
        "coordinates": [
          [
            139.60835,
            35.45325
          ],
          [
            139.60959,
            35.45394
          ]
        ]
      }
    },
    {
      "type": "Feature",
      "properties": {
        "N02_001": "12",
        "N02_002": "4",
        "N02_003": "本線",
        "N02_004": "相模鉄道",
        "N02_005": "平沼橋",
        "N02_005c": "004653",
        "N02_005g": "004653",
        "ward_code": "14103",
        "ward_name": "横浜市"
      },
      "geometry": {
        "type": "LineString",
        "coordinates": [
          [
            139.61615,
            35.4595
          ],
          [
            139.61678,
            35.46019
          ]
        ]
      }
    },
    {
      "type": "Feature",
      "properties": {
        "N02_001": "12",
        "N02_002": "4",
        "N02_003": "本線",
        "N02_004": "相模鉄道",
        "N02_005": "横浜",
        "N02_005c": "004633",
        "N02_005g": "004633",
        "ward_code": "14103",
        "ward_name": "横浜市"
      },
      "geometry": {
        "type": "LineString",
        "coordinates": [
          [
            139.62313,
            35.46693
          ],
          [
            139.62179,
            35.46553
          ],
          [
            139.62123,
            35.46481
          ]
        ]
      }
    },
    {
      "type": "Feature",
      "properties": {
        "N02_001": "12",
        "N02_002": "4",
        "N02_003": "東横線",
        "N02_004": "東急電鉄",
        "N02_005": "元住吉",
        "N02_005c": "004322",
        "N02_005g": "004322",
        "ward_code": "14133",
        "ward_name": "川崎市"
      },
      "geometry": {
        "type": "LineString",
        "coordinates": [
          [
            139.655,
            35.5663
          ],
          [
            139.65443,
            35.56511
          ]
        ]
      }
    },
    {
      "type": "Feature",
      "properties": {
        "N02_001": "12",
        "N02_002": "4",
        "N02_003": "東横線",
        "N02_004": "東急電鉄",
        "N02_005": "武蔵小杉",
        "N02_005c": "004298",
        "N02_005g": "004297",
        "ward_code": "14133",
        "ward_name": "川崎市"
      },
      "geometry": {
        "type": "LineString",
        "coordinates": [
          [
            139.66006,
            35.57663
          ],
          [
            139.66003,
            35.57656
          ],
          [
            139.65909,
            35.57464
          ]
        ]
      }
    },
    {
      "type": "Feature",
      "properties": {
        "N02_001": "12",
        "N02_002": "4",
        "N02_003": "東横線",
        "N02_004": "東急電鉄",
        "N02_005": "横浜",
        "N02_005c": "004628",
        "N02_005g": "004633",
        "ward_code": "14103",
        "ward_name": "横浜市"
      },
      "geometry": {
        "type": "LineString",
        "coordinates": [
          [
            139.62275,
            35.46687
          ],
          [
            139.62195,
            35.466
          ]
        ]
      }
    },
    {
      "type": "Feature",
      "properties": {
        "N02_001": "12",
        "N02_002": "4",
        "N02_003": "東横線",
        "N02_004": "東急電鉄",
        "N02_005": "新丸子",
        "N02_005c": "004287",
        "N02_005g": "004287",
        "ward_code": "14133",
        "ward_name": "川崎市"
      },
      "geometry": {
        "type": "LineString",
        "coordinates": [
          [
            139.6622,
            35.581
          ],
          [
            139.66168,
            35.57992
          ]
        ]
      }
    },
    {
      "type": "Feature",
      "properties": {
        "N02_001": "11",
        "N02_002": "2",
        "N02_003": "横須賀線",
        "N02_004": "東日本旅客鉄道",
        "N02_005": "北鎌倉",
        "N02_005c": "004998",
        "N02_005g": "004998",
        "ward_code": "14204",
        "ward_name": "鎌倉市"
      },
      "geometry": {
        "type": "LineString",
        "coordinates": [
          [
            139.54536,
            35.33721
          ],
          [
            139.54377,
            35.33867
          ]
        ]
      }
    },
    {
      "type": "Feature",
      "properties": {
        "N02_001": "11",
        "N02_002": "2",
        "N02_003": "横須賀線",
        "N02_004": "東日本旅客鉄道",
        "N02_005": "鎌倉",
        "N02_005c": "005055",
        "N02_005g": "005055",
        "ward_code": "14204",
        "ward_name": "鎌倉市"
      },
      "geometry": {
        "type": "LineString",
        "coordinates": [
          [
            139.55039,
            35.31826
          ],
          [
            139.55038,
            35.31843
          ],
          [
            139.5504,
            35.31887
          ],
          [
            139.55041,
            35.31933
          ],
          [
            139.55044,
            35.31969
          ],
          [
            139.55046,
            35.31996
          ],
          [
            139.55051,
            35.32036
          ]
        ]
      }
    },
    {
      "type": "Feature",
      "properties": {
        "N02_001": "11",
        "N02_002": "2",
        "N02_003": "横須賀線",
        "N02_004": "東日本旅客鉄道",
        "N02_005": "大船",
        "N02_005c": "004961",
        "N02_005g": "004961",
        "ward_code": "14204",
        "ward_name": "鎌倉市"
      },
      "geometry": {
        "type": "LineString",
        "coordinates": [
          [
            139.53102,
            35.3526
          ],
          [
            139.53112694,
            35.35302777
          ],
          [
            139.53141,
            35.35416
          ],
          [
            139.53164,
            35.35542
          ]
        ]
      }
    },
    {
      "type": "Feature",
      "properties": {
        "N02_001": "11",
        "N02_002": "2",
        "N02_003": "根岸線",
        "N02_004": "東日本旅客鉄道",
        "N02_005": "横浜",
        "N02_005c": "004635",
        "N02_005g": "004633",
        "ward_code": "14103",
        "ward_name": "横浜市"
      },
      "geometry": {
        "type": "LineString",
        "coordinates": [
          [
            139.6217,
            35.46467
          ],
          [
            139.62179,
            35.46479
          ],
          [
            139.62217,
            35.46536
          ],
          [
            139.62335,
            35.46681
          ]
        ]
      }
    },
    {
      "type": "Feature",
      "properties": {
        "N02_001": "11",
        "N02_002": "2",
        "N02_003": "根岸線",
        "N02_004": "東日本旅客鉄道",
        "N02_005": "大船",
        "N02_005c": "004960",
        "N02_005g": "004961",
        "ward_code": "14204",
        "ward_name": "鎌倉市"
      },
      "geometry": {
        "type": "LineString",
        "coordinates": [
          [
            139.532,
            35.35561
          ],
          [
            139.53155,
            35.3542
          ],
          [
            139.531245,
            35.353231
          ],
          [
            139.53102,
            35.3526
          ]
        ]
      }
    },
    {
      "type": "Feature",
      "properties": {
        "N02_001": "11",
        "N02_002": "2",
        "N02_003": "東海道線",
        "N02_004": "東日本旅客鉄道",
        "N02_005": "横浜",
        "N02_005c": "004634",
        "N02_005g": "004633",
        "ward_code": "14103",
        "ward_name": "横浜市"
      },
      "geometry": {
        "type": "LineString",
        "coordinates": [
          [
            139.6217,
            35.46467
          ],
          [
            139.62179,
            35.46479
          ],
          [
            139.62217,
            35.46536
          ],
          [
            139.62335,
            35.46681
          ]
        ]
      }
    },
    {
      "type": "Feature",
      "properties": {
        "N02_001": "11",
        "N02_002": "2",
        "N02_003": "東海道線",
        "N02_004": "東日本旅客鉄道",
        "N02_005": "横浜",
        "N02_005c": "004634",
        "N02_005g": "004633",
        "ward_code": "14103",
        "ward_name": "横浜市"
      },
      "geometry": {
        "type": "LineString",
        "coordinates": [
          [
            139.62133,
            35.46475
          ],
          [
            139.62179,
            35.46533
          ],
          [
            139.6232,
            35.46692
          ]
        ]
      }
    },
    {
      "type": "Feature",
      "properties": {
        "N02_001": "11",
        "N02_002": "2",
        "N02_003": "東海道線",
        "N02_004": "東日本旅客鉄道",
        "N02_005": "大船",
        "N02_005c": "004959",
        "N02_005g": "004961",
        "ward_code": "14204",
        "ward_name": "鎌倉市"
      },
      "geometry": {
        "type": "LineString",
        "coordinates": [
          [
            139.53164,
            35.35542
          ],
          [
            139.53115,
            35.35412
          ],
          [
            139.53069,
            35.35289
          ]
        ]
      }
    },
    {
      "type": "Feature",
      "properties": {
        "N02_001": "11",
        "N02_002": "2",
        "N02_003": "南武線",
        "N02_004": "東日本旅客鉄道",
        "N02_005": "武蔵新城",
        "N02_005c": "004269",
        "N02_005g": "004269",
        "ward_code": "14133",
        "ward_name": "川崎市"
      },
      "geometry": {
        "type": "LineString",
        "coordinates": [
          [
            139.63035,
            35.58688
          ],
          [
            139.62783,
            35.58795
          ]
        ]
      }
    },
    {
      "type": "Feature",
      "properties": {
        "N02_001": "11",
        "N02_002": "2",
        "N02_003": "南武線",
        "N02_004": "東日本旅客鉄道",
        "N02_005": "平間",
        "N02_005c": "004336",
        "N02_005g": "004336",
        "ward_code": "14133",
        "ward_name": "川崎市"
      },
      "geometry": {
        "type": "LineString",
        "coordinates": [
          [
            139.67094,
            35.56098
          ],
          [
            139.67125,
            35.56015
          ]
        ]
      }
    },
    {
      "type": "Feature",
      "properties": {
        "N02_001": "11",
        "N02_002": "2",
        "N02_003": "南武線",
        "N02_004": "東日本旅客鉄道",
        "N02_005": "向河原",
        "N02_005c": "004308",
        "N02_005g": "004308",
        "ward_code": "14133",
        "ward_name": "川崎市"
      },
      "geometry": {
        "type": "LineString",
        "coordinates": [
          [
            139.66714,
            35.57271
          ],
          [
            139.66745,
            35.57164
          ]
        ]
      }
    },
    {
      "type": "Feature",
      "properties": {
        "N02_001": "11",
        "N02_002": "2",
        "N02_003": "南武線",
        "N02_004": "東日本旅客鉄道",
        "N02_005": "武蔵小杉",
        "N02_005c": "004297",
        "N02_005g": "004297",
        "ward_code": "14133",
        "ward_name": "川崎市"
      },
      "geometry": {
        "type": "LineString",
        "coordinates": [
          [
            139.65925,
            35.57658
          ],
          [
            139.66003,
            35.57656
          ],
          [
            139.66014,
            35.57655
          ]
        ]
      }
    },
    {
      "type": "Feature",
      "properties": {
        "N02_001": "11",
        "N02_002": "2",
        "N02_003": "南武線",
        "N02_004": "東日本旅客鉄道",
        "N02_005": "武蔵中原",
        "N02_005c": "004286",
        "N02_005g": "004286",
        "ward_code": "14133",
        "ward_name": "川崎市"
      },
      "geometry": {
        "type": "LineString",
        "coordinates": [
          [
            139.64144,
            35.58094
          ],
          [
            139.64284,
            35.58018
          ]
        ]
      }
    },
    {
      "type": "Feature",
      "properties": {
        "N02_001": "11",
        "N02_002": "2",
        "N02_003": "東海道線",
        "N02_004": "東日本旅客鉄道",
        "N02_005": "武蔵小杉",
        "N02_005c": "004301",
        "N02_005g": "004301",
        "ward_code": "14133",
        "ward_name": "川崎市"
      },
      "geometry": {
        "type": "LineString",
        "coordinates": [
          [
            139.66332018,
            35.57602227
          ],
          [
            139.66327122,
            35.57572727
          ],
          [
            139.66325408,
            35.57549224
          ],
          [
            139.66326754,
            35.57527191
          ],
          [
            139.66329203,
            35.57505157
          ],
          [
            139.66332,
            35.57486
          ],
          [
            139.66338016,
            35.57458152
          ],
          [
            139.66344626,
            35.5743367
          ],
          [
            139.66352338,
            35.57405761
          ],
          [
            139.66374739,
            35.57334764
          ]
        ]
      }
    }
  ]
}